STARLINK-35893          
1 66565U 25268J   25359.33334491 -.02074068  00000+0 -40107-1 0  9996
2 66565  43.0004  47.2824 0001262 277.2123 115.5595 15.50332237  6089
STARLINK-35871          
1 66566U 25268K   25359.33334491 -.02068337  00000+0 -39234-1 0  9998
2 66566  43.0003  47.2717 0001270 275.9515 121.2132 15.50857787  6082
STARLINK-35825          
1 66567U 25268L   25358.23325008  .00130148  00000+0  17686-2 0  9995
2 66567  43.0005  53.7242 0003386 293.6521  66.3986 15.56426808  6419
STARLINK-35803          
1 66568U 25268M   25359.33334491 -.01765868  00000+0 -32005-1 0  9991
2 66568  43.0004  47.3082 0001221 269.4398 112.2497 15.52131220  6087
STARLINK-35835          
1 66569U 25268N   25359.33334491 -.02081861  00000+0 -36627-1 0  9991
2 66569  43.0006  47.2388 0001388 276.8246 133.6194 15.52951939  6084
STARLINK-35834          
1 66570U 25268P   25359.33334491 -.02022952  00000+0 -59098-1 0  9996
2 66570  42.9996  47.5441 0001080 260.9938  24.2156 15.38242179  6082
STARLINK-35836          
1 66571U 25268Q   25359.33334491 -.02025986  00000+0 -57576-1 0  9996
2 66571  42.9991  47.5112 0001174 258.9981  40.0153 15.39081705  6037
STARLINK-35870          
1 66572U 25268R   25359.33334491 -.02058306  00000+0 -55822-1 0  9991
2 66572  43.0004  47.4604 0001184 256.6064  63.5933 15.40545274  6032
STARLINK-35650          
1 66573U 25268S   25359.33334491 -.02086531  00000+0 -55084-1 0  9993
2 66573  43.0000  47.4290 0001283 260.8517  71.6136 15.41397803  6095
STARLINK-35812          
1 66574U 25268T   25359.33334491 -.02074252  00000+0 -53211-1 0  9991
2 66574  43.0006  47.3997 0001347 266.9420  77.2425 15.42224358  6038
STARLINK-35810          
1 66575U 25268U   25359.33334491 -.02082014  00000+0 -51925-1 0  9997
2 66575  43.0010  47.3727 0001351 267.8319  87.4979 15.43068358  6031
STARLINK-35814          
1 66576U 25268V   25359.33334491 -.02075789  00000+0 -50295-1 0  9998
2 66576  43.0006  47.3465 0001359 267.7563  98.1642 15.43902950  6091
