CCSDS_OMM_VERS = 2.0
CREATION_DATE  = 
ORIGINATOR     = 

OBJECT_NAME    = STARLINK-35893
OBJECT_ID      = 2025-268J
CENTER_NAME    = EARTH
REF_FRAME      = TEME
TIME_SYSTEM    = UTC
MEAN_ELEMENT_THEORY = SGP/SGP4

EPOCH          = 2025-12-25T08:00:01.000224
MEAN_MOTION    = 15.50332237
ECCENTRICITY   = .00012627
INCLINATION    = 43.0004
RA_OF_ASC_NODE = 47.2824
ARG_OF_PERICENTER = 277.2123
MEAN_ANOMALY   = 115.5595

EPHEMERIS_TYPE = 0
CLASSIFICATION_TYPE = U
NORAD_CAT_ID   = 66565
ELEMENT_SET_NO = 999
REV_AT_EPOCH   = 608
BSTAR          = -.40107025E-1
MEAN_MOTION_DOT = -.2074068E-1
MEAN_MOTION_DDOT = 0

CCSDS_OMM_VERS = 2.0
CREATION_DATE  = 
ORIGINATOR     = 

OBJECT_NAME    = STARLINK-35871
OBJECT_ID      = 2025-268K
CENTER_NAME    = EARTH
REF_FRAME      = TEME
TIME_SYSTEM    = UTC
MEAN_ELEMENT_THEORY = SGP/SGP4

EPOCH          = 2025-12-25T08:00:01.000224
MEAN_MOTION    = 15.50857787
ECCENTRICITY   = .00012701
INCLINATION    = 43.0003
RA_OF_ASC_NODE = 47.2717
ARG_OF_PERICENTER = 275.9515
MEAN_ANOMALY   = 121.2132

EPHEMERIS_TYPE = 0
CLASSIFICATION_TYPE = U
NORAD_CAT_ID   = 66566
ELEMENT_SET_NO = 999
REV_AT_EPOCH   = 608
BSTAR          = -.39233921E-1
MEAN_MOTION_DOT = -.2068337E-1
MEAN_MOTION_DDOT = 0

CCSDS_OMM_VERS = 2.0
CREATION_DATE  = 
ORIGINATOR     = 

OBJECT_NAME    = STARLINK-35825
OBJECT_ID      = 2025-268L
CENTER_NAME    = EARTH
REF_FRAME      = TEME
TIME_SYSTEM    = UTC
MEAN_ELEMENT_THEORY = SGP/SGP4

EPOCH          = 2025-12-24T05:35:52.806912
MEAN_MOTION    = 15.56426808
ECCENTRICITY   = .00033868
INCLINATION    = 43.0005
RA_OF_ASC_NODE = 53.7242
ARG_OF_PERICENTER = 293.6521
MEAN_ANOMALY   = 66.3986

EPHEMERIS_TYPE = 0
CLASSIFICATION_TYPE = U
NORAD_CAT_ID   = 66567
ELEMENT_SET_NO = 999
REV_AT_EPOCH   = 641
BSTAR          = .17686293E-2
MEAN_MOTION_DOT = .130148E-2
MEAN_MOTION_DDOT = 0

CCSDS_OMM_VERS = 2.0
CREATION_DATE  = 
ORIGINATOR     = 

OBJECT_NAME    = STARLINK-35803
OBJECT_ID      = 2025-268M
CENTER_NAME    = EARTH
REF_FRAME      = TEME
TIME_SYSTEM    = UTC
MEAN_ELEMENT_THEORY = SGP/SGP4

EPOCH          = 2025-12-25T08:00:01.000224
MEAN_MOTION    = 15.52131220
ECCENTRICITY   = .00012212
INCLINATION    = 43.0004
RA_OF_ASC_NODE = 47.3082
ARG_OF_PERICENTER = 269.4398
MEAN_ANOMALY   = 112.2497

EPHEMERIS_TYPE = 0
CLASSIFICATION_TYPE = U
NORAD_CAT_ID   = 66568
ELEMENT_SET_NO = 999
REV_AT_EPOCH   = 608
BSTAR          = -.32005427E-1
MEAN_MOTION_DOT = -.1765868E-1
MEAN_MOTION_DDOT = 0

CCSDS_OMM_VERS = 2.0
CREATION_DATE  = 
ORIGINATOR     = 

OBJECT_NAME    = STARLINK-35835
OBJECT_ID      = 2025-268N
CENTER_NAME    = EARTH
REF_FRAME      = TEME
TIME_SYSTEM    = UTC
MEAN_ELEMENT_THEORY = SGP/SGP4

EPOCH          = 2025-12-25T08:00:01.000224
MEAN_MOTION    = 15.52951939
ECCENTRICITY   = .00013888
INCLINATION    = 43.0006
RA_OF_ASC_NODE = 47.2388
ARG_OF_PERICENTER = 276.8246
MEAN_ANOMALY   = 133.6194

EPHEMERIS_TYPE = 0
CLASSIFICATION_TYPE = U
NORAD_CAT_ID   = 66569
ELEMENT_SET_NO = 999
REV_AT_EPOCH   = 608
BSTAR          = -.36626974E-1
MEAN_MOTION_DOT = -.2081861E-1
MEAN_MOTION_DDOT = 0

CCSDS_OMM_VERS = 2.0
CREATION_DATE  = 
ORIGINATOR     = 

OBJECT_NAME    = STARLINK-35834
OBJECT_ID      = 2025-268P
CENTER_NAME    = EARTH
REF_FRAME      = TEME
TIME_SYSTEM    = UTC
MEAN_ELEMENT_THEORY = SGP/SGP4

EPOCH          = 2025-12-25T08:00:01.000224
MEAN_MOTION    = 15.38242179
ECCENTRICITY   = .000108
INCLINATION    = 42.9996
RA_OF_ASC_NODE = 47.5441
ARG_OF_PERICENTER = 260.9938
MEAN_ANOMALY   = 24.2156

EPHEMERIS_TYPE = 0
CLASSIFICATION_TYPE = U
NORAD_CAT_ID   = 66570
ELEMENT_SET_NO = 999
REV_AT_EPOCH   = 608
BSTAR          = -.59098224E-1
MEAN_MOTION_DOT = -.2022952E-1
MEAN_MOTION_DDOT = 0

CCSDS_OMM_VERS = 2.0
CREATION_DATE  = 
ORIGINATOR     = 

OBJECT_NAME    = STARLINK-35836
OBJECT_ID      = 2025-268Q
CENTER_NAME    = EARTH
REF_FRAME      = TEME
TIME_SYSTEM    = UTC
MEAN_ELEMENT_THEORY = SGP/SGP4

EPOCH          = 2025-12-25T08:00:01.000224
MEAN_MOTION    = 15.39081705
ECCENTRICITY   = .00011749
INCLINATION    = 42.9991
RA_OF_ASC_NODE = 47.5112
ARG_OF_PERICENTER = 258.9981
MEAN_ANOMALY   = 40.0153

EPHEMERIS_TYPE = 0
CLASSIFICATION_TYPE = U
NORAD_CAT_ID   = 66571
ELEMENT_SET_NO = 999
REV_AT_EPOCH   = 603
BSTAR          = -.57576002E-1
MEAN_MOTION_DOT = -.2025986E-1
MEAN_MOTION_DDOT = 0

CCSDS_OMM_VERS = 2.0
CREATION_DATE  = 
ORIGINATOR     = 

OBJECT_NAME    = STARLINK-35870
OBJECT_ID      = 2025-268R
CENTER_NAME    = EARTH
REF_FRAME      = TEME
TIME_SYSTEM    = UTC
MEAN_ELEMENT_THEORY = SGP/SGP4

EPOCH          = 2025-12-25T08:00:01.000224
MEAN_MOTION    = 15.40545274
ECCENTRICITY   = .00011845
INCLINATION    = 43.0004
RA_OF_ASC_NODE = 47.4604
ARG_OF_PERICENTER = 256.6064
MEAN_ANOMALY   = 63.5933

EPHEMERIS_TYPE = 0
CLASSIFICATION_TYPE = U
NORAD_CAT_ID   = 66572
ELEMENT_SET_NO = 999
REV_AT_EPOCH   = 603
BSTAR          = -.55821811E-1
MEAN_MOTION_DOT = -.2058306E-1
MEAN_MOTION_DDOT = 0

CCSDS_OMM_VERS = 2.0
CREATION_DATE  = 
ORIGINATOR     = 

OBJECT_NAME    = STARLINK-35650
OBJECT_ID      = 2025-268S
CENTER_NAME    = EARTH
REF_FRAME      = TEME
TIME_SYSTEM    = UTC
MEAN_ELEMENT_THEORY = SGP/SGP4

EPOCH          = 2025-12-25T08:00:01.000224
MEAN_MOTION    = 15.41397803
ECCENTRICITY   = .0001283
INCLINATION    = 43.0000
RA_OF_ASC_NODE = 47.4290
ARG_OF_PERICENTER = 260.8517
MEAN_ANOMALY   = 71.6136

EPHEMERIS_TYPE = 0
CLASSIFICATION_TYPE = U
NORAD_CAT_ID   = 66573
ELEMENT_SET_NO = 999
REV_AT_EPOCH   = 609
BSTAR          = -.55084407E-1
MEAN_MOTION_DOT = -.2086531E-1
MEAN_MOTION_DDOT = 0

CCSDS_OMM_VERS = 2.0
CREATION_DATE  = 
ORIGINATOR     = 

OBJECT_NAME    = STARLINK-35812
OBJECT_ID      = 2025-268T
CENTER_NAME    = EARTH
REF_FRAME      = TEME
TIME_SYSTEM    = UTC
MEAN_ELEMENT_THEORY = SGP/SGP4

EPOCH          = 2025-12-25T08:00:01.000224
MEAN_MOTION    = 15.42224358
ECCENTRICITY   = .00013479
INCLINATION    = 43.0006
RA_OF_ASC_NODE = 47.3997
ARG_OF_PERICENTER = 266.9420
MEAN_ANOMALY   = 77.2425

EPHEMERIS_TYPE = 0
CLASSIFICATION_TYPE = U
NORAD_CAT_ID   = 66574
ELEMENT_SET_NO = 999
REV_AT_EPOCH   = 603
BSTAR          = -.53210985E-1
MEAN_MOTION_DOT = -.2074252E-1
MEAN_MOTION_DDOT = 0

CCSDS_OMM_VERS = 2.0
CREATION_DATE  = 
ORIGINATOR     = 

OBJECT_NAME    = STARLINK-35810
OBJECT_ID      = 2025-268U
CENTER_NAME    = EARTH
REF_FRAME      = TEME
TIME_SYSTEM    = UTC
MEAN_ELEMENT_THEORY = SGP/SGP4

EPOCH          = 2025-12-25T08:00:01.000224
MEAN_MOTION    = 15.43068358
ECCENTRICITY   = .00013517
INCLINATION    = 43.0010
RA_OF_ASC_NODE = 47.3727
ARG_OF_PERICENTER = 267.8319
MEAN_ANOMALY   = 87.4979

EPHEMERIS_TYPE = 0
CLASSIFICATION_TYPE = U
NORAD_CAT_ID   = 66575
ELEMENT_SET_NO = 999
REV_AT_EPOCH   = 603
BSTAR          = -.51925075E-1
MEAN_MOTION_DOT = -.2082014E-1
MEAN_MOTION_DDOT = 0

CCSDS_OMM_VERS = 2.0
CREATION_DATE  = 
ORIGINATOR     = 

OBJECT_NAME    = STARLINK-35814
OBJECT_ID      = 2025-268V
CENTER_NAME    = EARTH
REF_FRAME      = TEME
TIME_SYSTEM    = UTC
MEAN_ELEMENT_THEORY = SGP/SGP4

EPOCH          = 2025-12-25T08:00:01.000224
MEAN_MOTION    = 15.43902950
ECCENTRICITY   = .00013595
INCLINATION    = 43.0006
RA_OF_ASC_NODE = 47.3465
ARG_OF_PERICENTER = 267.7563
MEAN_ANOMALY   = 98.1642

EPHEMERIS_TYPE = 0
CLASSIFICATION_TYPE = U
NORAD_CAT_ID   = 66576
ELEMENT_SET_NO = 999
REV_AT_EPOCH   = 609
BSTAR          = -.50294823E-1
MEAN_MOTION_DOT = -.2075789E-1
MEAN_MOTION_DDOT = 0

